STARLINK-2303           
1 47981U 21024E   26068.86949175 -.00026761  00000+0 -89650-3 0  9993
2 47981  53.1598 331.6170 0002126  54.6031 305.5168 15.30130194274652
YAM-7                   
1 60504U 24149AN  26068.71799904  .00009009  00000+0  30984-3 0  9997
2 60504  97.3828 149.4631 0001973 296.5121  63.5918 15.30304554 86835
